From: horizons@ssd.jpl.nasa.gov (Horizons Ephemeris System)
Subject: [Horizons] SMALL BODY #C(500@399)_T(Catalina (P/2009 WX51)) (1/1)
Date: January 29, 2021 at 4:08:39 PM PST

Automated mail xmit by PORT_LOGIN, PID= 12929 Fri Jan 29 16:08:39 2021
++++++++++++++++++++++++++++++++ (part 1 of 1)  +++++++++++++++++++++++++++++++
*******************************************************************************
Ephemeris / PORT_LOGIN Fri Jan 29 16:08:24 2021 Pasadena, USA    / Horizons
*******************************************************************************
Target body name: Catalina (P/2009 WX51)          {source: JPL#20}
Center body name: Earth (399)                     {source: DE431}
Center-site name: BODY CENTER
*******************************************************************************
Start time      : A.D. 2036-Oct-18 03:09:10.0000 TDB
Stop  time      : A.D. 2037-Oct-18 03:09:10.0000 TDB
Step-size       : 10080 minutes
*******************************************************************************
Center geodetic : 0.00000000,0.00000000,0.0000000 {E-lon(deg),Lat(deg),Alt(km)}
Center cylindric: 0.00000000,0.00000000,0.0000000 {E-lon(deg),Dxy(km),Dz(km)}
Center radii    : 6378.1 x 6378.1 x 6356.8 km     {Equator, meridian, pole}    
Small perturbers: Yes                             {source: SB431-N16}
Output units    : AU-D
Output type     : GEOMETRIC cartesian states
Output format   : 6 (LT, range, and range-rate)
EOP file        : eop.210129.p210422
EOP coverage    : DATA-BASED 1962-JAN-20 TO 2021-JAN-29. PREDICTS-> 2021-APR-21
Reference frame : Ecliptic of J2000.0
*******************************************************************************
Initial IAU76/J2000 heliocentric ecliptic osculating elements (au, days, deg.):
 EPOCH=  2455174.5 ! 2009-Dec-09.0000000 (TDB)    RMSW= n.a.                  
  EC= .7402937985098577   QR= .7999563763579102   TP= 2455227.575313834       
  OM= 31.75840424456823   W= 118.0162516834806    IN= 9.592598877843795       
 Equivalent ICRF heliocentric equatorial cartesian coordinates (au, au/d):
  X= 2.880317815179381E-01  Y= 9.656852417832067E-01  Z= 5.647010248745494E-01
 VX=-1.953131503345222E-02 VY=-5.706165169757023E-03 VZ=-1.493298173604999E-03
Comet physical (GM= km^3/s^2; RAD= km):                                        
  GM= n.a.                RAD= n.a.                                           
  M1=  20.6     M2=  n.a.     k1=  10.    k2= n.a.     PHCOF= n.a.            
*******************************************************************************
           JDTDB,            Calendar Date (TDB),                     LT,                     RG,                     RR,
**************************************************************************************************************************
$$SOE
2464984.631365741, A.D. 2036-Oct-18 03:09:10.0000,  6.528251667524495E-03,  1.130331736978526E+00, -1.325261642130045E-02,
2464991.631365741, A.D. 2036-Oct-25 03:09:10.0000,  6.028052284413346E-03,  1.043724898525864E+00, -1.146866798545026E-02,
2464998.631365741, A.D. 2036-Nov-01 03:09:10.0000,  5.602357855415488E-03,  9.700181929855596E-01, -9.578402499420451E-03,
2465005.631365741, A.D. 2036-Nov-08 03:09:10.0000,  5.254058019083758E-03,  9.097119457634041E-01, -7.651724488790598E-03,
2465012.631365741, A.D. 2036-Nov-15 03:09:10.0000,  4.983126314507224E-03,  8.628015752946945E-01, -5.766929828540414E-03,
2465019.631365741, A.D. 2036-Nov-22 03:09:10.0000,  4.785500093591888E-03,  8.285836558675105E-01, -4.049844864246238E-03,
2465026.631365741, A.D. 2036-Nov-29 03:09:10.0000,  4.651658846011895E-03,  8.054097622186106E-01, -2.627973246618129E-03,
2465033.631365741, A.D. 2036-Dec-06 03:09:10.0000,  4.568099616839496E-03,  7.909419301770128E-01, -1.568170937006042E-03,
2465040.631365741, A.D. 2036-Dec-13 03:09:10.0000,  4.519770294386740E-03,  7.825739673935352E-01, -8.870973600694515E-04,
2465047.631365741, A.D. 2036-Dec-20 03:09:10.0000,  4.491038043926976E-03,  7.775991324417751E-01, -6.001455646193108E-04,
2465054.631365741, A.D. 2036-Dec-27 03:09:10.0000,  4.466171240029797E-03,  7.732935788152158E-01, -6.882546352638289E-04,
2465061.631365741, A.D. 2037-Jan-03 03:09:10.0000,  4.431143970867313E-03,  7.672287951624958E-01, -1.090544234894778E-03,
2465068.631365741, A.D. 2037-Jan-10 03:09:10.0000,  4.374703621601215E-03,  7.574564516208113E-01, -1.739292763507520E-03,
2465075.631365741, A.D. 2037-Jan-17 03:09:10.0000,  4.287617398307591E-03,  7.423779394776499E-01, -2.601625891244431E-03,
2465082.631365741, A.D. 2037-Jan-24 03:09:10.0000,  4.162058787093582E-03,  7.206381398599125E-01, -3.632828295542663E-03,
2465089.631365741, A.D. 2037-Jan-31 03:09:10.0000,  3.992487475387773E-03,  6.912777773825211E-01, -4.766516028994932E-03,
2465096.631365741, A.D. 2037-Feb-07 03:09:10.0000,  3.776255935340059E-03,  6.538384468083746E-01, -5.931585660646475E-03,
2465103.631365741, A.D. 2037-Feb-14 03:09:10.0000,  3.513064959057913E-03,  6.082683418968274E-01, -7.081090431447233E-03,
2465110.631365741, A.D. 2037-Feb-21 03:09:10.0000,  3.204837773711348E-03,  5.549004591097816E-01, -8.145342122465636E-03,
2465117.631365741, A.D. 2037-Feb-28 03:09:10.0000,  2.856844720810697E-03,  4.946473297921108E-01, -9.032147912896662E-03,
2465124.631365741, A.D. 2037-Mar-07 03:09:10.0000,  2.478083328034607E-03,  4.290668275687111E-01, -9.658053355202749E-03,
2465131.631365741, A.D. 2037-Mar-14 03:09:10.0000,  2.079707326586749E-03,  3.600901611317891E-01, -1.000355423336377E-02,
2465138.631365741, A.D. 2037-Mar-21 03:09:10.0000,  1.672780718125503E-03,  2.896330029843922E-01, -1.008577075087294E-02,
2465145.631365741, A.D. 2037-Mar-28 03:09:10.0000,  1.267363865459174E-03,  2.194372509495341E-01, -9.931107462815551E-03,
2465152.631365741, A.D. 2037-Apr-04 03:09:10.0000,  8.735720074272624E-04,  1.512543043404921E-01, -9.482875901926785E-03,
2465159.631365741, A.D. 2037-Apr-11 03:09:10.0000,  5.125855977382957E-04,  8.875144503450315E-02, -8.027306697163679E-03,
2465166.631365741, A.D. 2037-Apr-18 03:09:10.0000,  3.100624011941965E-04,  5.368564056086211E-02, -1.649104588254303E-08,
2465173.631365741, A.D. 2037-Apr-25 03:09:10.0000,  5.166481901288649E-04,  8.945486110167339E-02,  8.266081914638445E-03,
2465180.631365741, A.D. 2037-May-02 03:09:10.0000,  8.931321265779713E-04,  1.546410339859060E-01,  1.001845767889907E-02,
2465187.631365741, A.D. 2037-May-09 03:09:10.0000,  1.316195198026632E-03,  2.278921340899202E-01,  1.087129334826525E-02,
2465194.631365741, A.D. 2037-May-16 03:09:10.0000,  1.771183903292260E-03,  3.066709863340655E-01,  1.163764705268766E-02,
2465201.631365741, A.D. 2037-May-23 03:09:10.0000,  2.257461191554211E-03,  3.908672887880069E-01,  1.242212320981379E-02,
2465208.631365741, A.D. 2037-May-30 03:09:10.0000,  2.775915886122640E-03,  4.806349364372930E-01,  1.323072404964286E-02,
2465215.631365741, A.D. 2037-Jun-06 03:09:10.0000,  3.327704895848098E-03,  5.761742418398902E-01,  1.407082111512462E-02,
2465222.631365741, A.D. 2037-Jun-13 03:09:10.0000,  3.913843126486705E-03,  6.776609304801411E-01,  1.492529904632170E-02,
2465229.631365741, A.D. 2037-Jun-20 03:09:10.0000,  4.534254534530104E-03,  7.850818358327236E-01,  1.576014445128698E-02,
2465236.631365741, A.D. 2037-Jun-27 03:09:10.0000,  5.187624886751763E-03,  8.982094054683819E-01,  1.655630022138656E-02,
2465243.631365741, A.D. 2037-Jul-04 03:09:10.0000,  5.872548717407630E-03,  1.016800290537125E+00,  1.732147730438107E-02,
2465250.631365741, A.D. 2037-Jul-11 03:09:10.0000,  6.587645467337083E-03,  1.140615454630203E+00,  1.804570040160855E-02,
2465257.631365741, A.D. 2037-Jul-18 03:09:10.0000,  7.330766466164930E-03,  1.269282867004766E+00,  1.870283022831307E-02,
2465264.631365741, A.D. 2037-Jul-25 03:09:10.0000,  8.098840301066860E-03,  1.402270729015556E+00,  1.928218678760209E-02,
2465271.631365741, A.D. 2037-Aug-01 03:09:10.0000,  8.889027410260595E-03,  1.539087385780825E+00,  1.979795115669962E-02,
2465278.631365741, A.D. 2037-Aug-08 03:09:10.0000,  9.698735784945485E-03,  1.679284044888897E+00,  2.024554219974936E-02,
2465285.631365741, A.D. 2037-Aug-15 03:09:10.0000,  1.052481007179577E-02,  1.822314373847225E+00,  2.060303478454129E-02,
2465292.631365741, A.D. 2037-Aug-22 03:09:10.0000,  1.136331270934726E-02,  1.967496605022459E+00,  2.086320648363215E-02,
2465299.631365741, A.D. 2037-Aug-29 03:09:10.0000,  1.221068325735529E-02,  2.114214267296278E+00,  2.104319840058624E-02,
2465306.631365741, A.D. 2037-Sep-05 03:09:10.0000,  1.306370631327143E-02,  2.261910630975537E+00,  2.114092896548758E-02,
2465313.631365741, A.D. 2037-Sep-12 03:09:10.0000,  1.391870634591359E-02,  2.409949297563826E+00,  2.113671412843245E-02,
2465320.631365741, A.D. 2037-Sep-19 03:09:10.0000,  1.477129368139824E-02,  2.557570218589027E+00,  2.102481271837804E-02,
2465327.631365741, A.D. 2037-Sep-26 03:09:10.0000,  1.561753532682296E-02,  2.704092417439733E+00,  2.082451716752270E-02,
2465334.631365741, A.D. 2037-Oct-03 03:09:10.0000,  1.645392344219933E-02,  2.848908530449676E+00,  2.053581973914111E-02,
2465341.631365741, A.D. 2037-Oct-10 03:09:10.0000,  1.727657704583441E-02,  2.991346586469212E+00,  2.014115917337121E-02,
2465348.631365741, A.D. 2037-Oct-17 03:09:10.0000,  1.808097793350346E-02,  3.130624282687502E+00,  1.963637917292628E-02,
$$EOE
**************************************************************************************************************************
Coordinate system description:

 Ecliptic at the standard reference epoch

   Reference epoch: J2000.0
   X-Y plane: adopted Earth orbital plane at the reference epoch
              Note: obliquity of 84381.448 arcseconds (IAU76) wrt ICRF equator
   X-axis   : ICRF
   Z-axis   : perpendicular to the X-Y plane in the directional (+ or -) sense
              of Earth's north pole at the reference epoch.

 Symbol meaning [1 au= 149597870.700 km, 1 day= 86400.0 s]:

   JDTDB    Julian Day Number, Barycentric Dynamical Time
     LT     One-way down-leg Newtonian light-time (day)
     RG     Range; distance from coordinate center (au)
     RR     Range-rate; radial velocity wrt coord. center (au/day)

Geometric states/elements have no aberrations applied.


Computations by ...
    Solar System Dynamics Group, Horizons On-Line Ephemeris System
    4800 Oak Grove Drive, Jet Propulsion Laboratory
    Pasadena, CA  91109   USA
    Information  : https://ssd.jpl.nasa.gov/
    Documentation: https://ssd.jpl.nasa.gov/?horizons_doc
    Connect      : https://ssd.jpl.nasa.gov/?horizons (browser)
                   telnet ssd.jpl.nasa.gov 6775       (command-line)
                   e-mail command interface available
                   Script and CGI interfaces available
    Author       : Jon.D.Giorgini@jpl.nasa.gov
*******************************************************************************
